{
  "type": "FeatureCollection",
  "features": [
    {
      "type": "Feature",
      "properties": {
        "norad_id": 35834,
        "name": "COSMOS 2251 DEB",
        "group": "cosmos-2251-debris",
        "lat": -51.93196702314913,
        "lon": -63.640754931956046,
        "alt_km": 934.36065835914,
        "timestamp": "2025-12-05T04:52:15.686779+00:00",
        "meta_object_name": "COSMOS 2251 DEB",
        "meta_object_id": "1993-036ATG",
        "meta_epoch": "2025-12-04T05:26:40.982208",
        "meta_mean_motion": 14.12967901,
        "meta_eccentricity": 0.0109106,
        "meta_inclination": 73.9304,
        "meta_ra_of_asc_node": 319.69,
        "meta_arg_of_pericenter": 121.8785,
        "meta_mean_anomaly": 260.1307,
        "meta_ephemeris_type": 0,
        "meta_classification_type": "U",
        "meta_norad_cat_id": 35834,
        "meta_element_set_no": 999,
        "meta_rev_at_epoch": 66143,
        "meta_bstar": 0.00027149,
        "meta_mean_motion_dot": 5.11e-06,
        "meta_mean_motion_ddot": 0,
        "tle_line1": "1 35834U 93036ATG 25338.22686322  .00000511  00000+0  27149-3 0  9998",
        "tle_line2": "2 35834  73.9304 319.6900 0109106 121.8785 260.1307 14.12967901661437"
      },
      "geometry": {
        "type": "Point",
        "coordinates": [
          -63.640754931956046,
          -51.93196702314913
        ]
      }
    },
    {
      "type": "Feature",
      "properties": {
        "norad_id": 35835,
        "name": "COSMOS 2251 DEB",
        "group": "cosmos-2251-debris",
        "lat": -24.699451514595516,
        "lon": -86.44470765666729,
        "alt_km": 953.3442093853109,
        "timestamp": "2025-12-05T04:52:15.686788+00:00",
        "meta_object_name": "COSMOS 2251 DEB",
        "meta_object_id": "1993-036ATH",
        "meta_epoch": "2025-12-04T13:22:03.090144",
        "meta_mean_motion": 13.82821616,
        "meta_eccentricity": 0.0289764,
        "meta_inclination": 74.0638,
        "meta_ra_of_asc_node": 282.192,
        "meta_arg_of_pericenter": 65.7075,
        "meta_mean_anomaly": 297.4021,
        "meta_ephemeris_type": 0,
        "meta_classification_type": "U",
        "meta_norad_cat_id": 35835,
        "meta_element_set_no": 999,
        "meta_rev_at_epoch": 61586,
        "meta_bstar": 0.0025294,
        "meta_mean_motion_dot": 3.783e-05,
        "meta_mean_motion_ddot": 0,
        "tle_line1": "1 35835U 93036ATH 25338.55698021  .00003783  00000+0  25294-2 0  9996",
        "tle_line2": "2 35835  74.0638 282.1920 0289764  65.7075 297.4021 13.82821616615863"
      },
      "geometry": {
        "type": "Point",
        "coordinates": [
          -86.44470765666729,
          -24.699451514595516
        ]
      }
    },
    {
      "type": "Feature",
      "properties": {
        "norad_id": 35836,
        "name": "COSMOS 2251 DEB",
        "group": "cosmos-2251-debris",
        "lat": -28.10318856632589,
        "lon": 178.7750932890563,
        "alt_km": 662.2543184422566,
        "timestamp": "2025-12-05T04:52:15.686797+00:00",
        "meta_object_name": "COSMOS 2251 DEB",
        "meta_object_id": "1993-036ATJ",
        "meta_epoch": "2025-12-04T07:46:52.126752",
        "meta_mean_motion": 14.70687432,
        "meta_eccentricity": 0.0025001,
        "meta_inclination": 74.0321,
        "meta_ra_of_asc_node": 189.2758,
        "meta_arg_of_pericenter": 248.9498,
        "meta_mean_anomaly": 110.9,
        "meta_ephemeris_type": 0,
        "meta_classification_type": "U",
        "meta_norad_cat_id": 35836,
        "meta_element_set_no": 999,
        "meta_rev_at_epoch": 63396,
        "meta_bstar": 0.0041741,
        "meta_mean_motion_dot": 0.00025617,
        "meta_mean_motion_ddot": 0,
        "tle_line1": "1 35836U 93036ATJ 25338.32421443  .00025617  00000+0  41741-2 0  9999",
        "tle_line2": "2 35836  74.0321 189.2758 0025001 248.9498 110.9000 14.70687432633966"
      },
      "geometry": {
        "type": "Point",
        "coordinates": [
          178.7750932890563,
          -28.10318856632589
        ]
      }
    },
    {
      "type": "Feature",
      "properties": {
        "norad_id": 35837,
        "name": "COSMOS 2251 DEB",
        "group": "cosmos-2251-debris",
        "lat": -65.05397360411528,
        "lon": -178.7476642920293,
        "alt_km": 1288.294532420823,
        "timestamp": "2025-12-05T04:52:15.686806+00:00",
        "meta_object_name": "COSMOS 2251 DEB",
        "meta_object_id": "1993-036ATK",
        "meta_epoch": "2025-12-04T01:24:29.156256",
        "meta_mean_motion": 13.63390826,
        "meta_eccentricity": 0.04220999,
        "meta_inclination": 73.7219,
        "meta_ra_of_asc_node": 222.0677,
        "meta_arg_of_pericenter": 144.2331,
        "meta_mean_anomaly": 287.9035,
        "meta_ephemeris_type": 0,
        "meta_classification_type": "U",
        "meta_norad_cat_id": 35837,
        "meta_element_set_no": 999,
        "meta_rev_at_epoch": 57858,
        "meta_bstar": 0.0026672111,
        "meta_mean_motion_dot": 3.824e-05,
        "meta_mean_motion_ddot": 0,
        "tle_line1": "1 35837U 93036ATK 25338.05867079  .00003824  00000+0  26672-2 0  9991",
        "tle_line2": "2 35837  73.7219 222.0677 0422099 144.2331 287.9035 13.63390826578585"
      },
      "geometry": {
        "type": "Point",
        "coordinates": [
          -178.7476642920293,
          -65.05397360411528
        ]
      }
    },
    {
      "type": "Feature",
      "properties": {
        "norad_id": 35839,
        "name": "COSMOS 2251 DEB",
        "group": "cosmos-2251-debris",
        "lat": -50.03252410522385,
        "lon": -39.86342924599928,
        "alt_km": 432.1432755983269,
        "timestamp": "2025-12-05T04:52:15.686815+00:00",
        "meta_object_name": "COSMOS 2251 DEB",
        "meta_object_id": "1993-036ATM",
        "meta_epoch": "2025-12-04T16:40:31.818144",
        "meta_mean_motion": 15.4602255,
        "meta_eccentricity": 0.0003564,
        "meta_inclination": 74.214,
        "meta_ra_of_asc_node": 340.9599,
        "meta_arg_of_pericenter": 349.0026,
        "meta_mean_anomaly": 11.1107,
        "meta_ephemeris_type": 0,
        "meta_classification_type": "U",
        "meta_norad_cat_id": 35839,
        "meta_element_set_no": 999,
        "meta_rev_at_epoch": 88443,
        "meta_bstar": 0.0062637,
        "meta_mean_motion_dot": 0.00318871,
        "meta_mean_motion_ddot": 0,
        "tle_line1": "1 35839U 93036ATM 25338.69481271  .00318871  00000+0  62637-2 0  9991",
        "tle_line2": "2 35839  74.2140 340.9599 0003564 349.0026  11.1107 15.46022550884437"
      },
      "geometry": {
        "type": "Point",
        "coordinates": [
          -39.86342924599928,
          -50.03252410522385
        ]
      }
    },
    {
      "type": "Feature",
      "properties": {
        "norad_id": 35840,
        "name": "COSMOS 2251 DEB",
        "group": "cosmos-2251-debris",
        "lat": -52.42414963584323,
        "lon": 14.148755962129767,
        "alt_km": 850.0691707677643,
        "timestamp": "2025-12-05T04:52:15.686824+00:00",
        "meta_object_name": "COSMOS 2251 DEB",
        "meta_object_id": "1993-036ATN",
        "meta_epoch": "2025-12-03T06:41:48.528096",
        "meta_mean_motion": 14.37668767,
        "meta_eccentricity": 0.0116177,
        "meta_inclination": 73.9299,
        "meta_ra_of_asc_node": 175.711,
        "meta_arg_of_pericenter": 80.5155,
        "meta_mean_anomaly": 280.9106,
        "meta_ephemeris_type": 0,
        "meta_classification_type": "U",
        "meta_norad_cat_id": 35840,
        "meta_element_set_no": 999,
        "meta_rev_at_epoch": 85155,
        "meta_bstar": 0.0020521,
        "meta_mean_motion_dot": 6.645e-05,
        "meta_mean_motion_ddot": 0,
        "tle_line1": "1 35840U 93036ATN 25337.27903389  .00006645  00000+0  20521-2 0  9994",
        "tle_line2": "2 35840  73.9299 175.7110 0116177  80.5155 280.9106 14.37668767851555"
      },
      "geometry": {
        "type": "Point",
        "coordinates": [
          14.148755962129767,
          -52.42414963584323
        ]
      }
    },
    {
      "type": "Feature",
      "properties": {
        "norad_id": 35883,
        "name": "COSMOS 2251 DEB",
        "group": "cosmos-2251-debris",
        "lat": -63.141059282612126,
        "lon": -61.34061412332055,
        "alt_km": 680.4248966364403,
        "timestamp": "2025-12-05T04:52:15.686833+00:00",
        "meta_object_name": "COSMOS 2251 DEB",
        "meta_object_id": "1993-036ATW",
        "meta_epoch": "2025-11-29T02:53:29.744160",
        "meta_mean_motion": 14.50541303,
        "meta_eccentricity": 0.00841977,
        "meta_inclination": 74.0237,
        "meta_ra_of_asc_node": 95.6459,
        "meta_arg_of_pericenter": 227.8885,
        "meta_mean_anomaly": 309.997,
        "meta_ephemeris_type": 0,
        "meta_classification_type": "U",
        "meta_norad_cat_id": 35883,
        "meta_element_set_no": 999,
        "meta_rev_at_epoch": 62188,
        "meta_bstar": 0.00041574036,
        "meta_mean_motion_dot": 1.674e-05,
        "meta_mean_motion_ddot": 0,
        "tle_line1": "1 35883U 93036ATW 25333.12048315  .00001674  00000+0  41574-3 0  9999",
        "tle_line2": "2 35883  74.0237  95.6459 0084197 227.8885 309.9970 14.50541303621887"
      },
      "geometry": {
        "type": "Point",
        "coordinates": [
          -61.34061412332055,
          -63.141059282612126
        ]
      }
    }
  ]
}